NORAD_CAT_ID,OBJECT_NAME,OBJECT_TYPE,EPOCH,MEAN_MOTION,ECCENTRICITY,INCLINATION,RA_OF_ASC_NODE,ARG_OF_PERICENTER,MEAN_ANOMALY,BSTAR,MEAN_MOTION_DOT,MEAN_MOTION_DDOT,TLE_LINE0,TLE_LINE1,TLE_LINE2,SEMIMAJOR_AXIS,PERIOD,APOGEE,PERIGEE,DECAYED
52356.0,STARLINK-3801,PAYLOAD,2023-10-01 14:38:28,15.08832526,0.0001233,53.2146,234.8756,100.0222,260.0909,0.00068551,0.00010637,0.0,0 STARLINK-3801,1 52356U 22045AB  23274.61005012  .00010637  00000-0  68551-3 0  9992,2 52356  53.2146 234.8756 0001233 100.0222 260.0909 15.08832526 81415,6917.903,95.438,540.621,538.915,0.0
52356.0,STARLINK-3801,PAYLOAD,2023-10-02 01:46:10,15.08834346,0.0001288,53.2144,232.794,97.3218,262.792,0.00045077,6.892e-05,0.0,0 STARLINK-3801,1 52356U 22045AB  23275.07373347  .00006892  00000-0  45077-3 0  9998,2 52356  53.2144 232.7940 0001288  97.3218 262.7920 15.08834346 81489,6917.898,95.438,540.654,538.872,0.0
52356.0,STARLINK-3801,PAYLOAD,2023-10-02 20:50:48,15.08840477,0.0001536,53.2152,229.2234,88.935,271.1818,0.00030006,4.491e-05,0.0,0 STARLINK-3801,1 52356U 22045AB  23275.86861479  .00004491  00000-0  30006-3 0  9992,2 52356  53.2152 229.2234 0001536  88.9350 271.1818 15.08840477 81600,6917.879,95.438,540.807,538.681,0.0
52356.0,STARLINK-3801,PAYLOAD,2023-10-03 03:12:20,15.08843924,0.0001315,53.2153,228.0316,97.1853,262.9288,0.00032659,4.914e-05,0.0,0 STARLINK-3801,1 52356U 22045AB  23276.13357266  .00004914  00000-0  32659-3 0  9993,2 52356  53.2153 228.0316 0001315  97.1853 262.9288 15.08843924 81647,6917.868,95.437,540.643,538.824,0.0
52356.0,STARLINK-3801,PAYLOAD,2023-10-03 14:20:02,15.08841002,0.0001364,53.2155,225.9504,96.4041,263.7107,0.00020869,3.035e-05,0.0,0 STARLINK-3801,1 52356U 22045AB  23276.59725421  .00003035  00000-0  20869-3 0  9998,2 52356  53.2155 225.9504 0001364  96.4041 263.7107 15.08841002 81711,6917.877,95.437,540.686,538.799,0.0
52356.0,STARLINK-3801,PAYLOAD,2023-10-04 06:13:54,15.0884503,0.0001465,53.2158,222.9769,97.0851,263.0308,0.00025167,3.72e-05,0.0,0 STARLINK-3801,1 52356U 22045AB  23277.25965382  .00003720  00000-0  25167-3 0  9991,2 52356  53.2158 222.9769 0001465  97.0851 263.0308 15.08845030 81814,6917.865,95.437,540.743,538.717,0.0
52356.0,STARLINK-3801,PAYLOAD,2023-10-05 02:53:54,15.08855801,0.0001572,53.2147,219.1108,101.6605,258.4564,0.0003613,5.469e-05,0.0,0 STARLINK-3801,1 52356U 22045AB  23278.12076881  .00005469  00000-0  36130-3 0  9999,2 52356  53.2147 219.1108 0001572 101.6605 258.4564 15.08855801 81948,6917.832,95.437,540.785,538.61,0.0
52356.0,STARLINK-3801,PAYLOAD,2023-10-05 06:04:40,15.08860694,0.0001595,53.2147,218.516,101.1271,258.99,0.00057836,8.934e-05,0.0,0 STARLINK-3801,1 52356U 22045AB  23278.25324767  .00008934  00000-0  57836-3 0  9998,2 52356  53.2147 218.5160 0001595 101.1271 258.9900 15.08860694 81965,6917.817,95.436,540.786,538.579,0.0
52356.0,STARLINK-3801,PAYLOAD,2023-10-06 01:09:18,15.08844815,0.0001437,53.2169,214.9489,101.0536,259.0618,0.00011307,1.512e-05,0.0,0 STARLINK-3801,1 52356U 22045AB  23279.04813055  .00001512  00000-0  11307-3 0  9997,2 52356  53.2169 214.9489 0001437 101.0536 259.0618 15.08844815 82080,6917.866,95.437,540.725,538.737,0.0
52356.0,STARLINK-3801,PAYLOAD,2023-10-06 12:17:00,15.08847385,0.0001279,53.2168,212.8702,83.372,276.7417,0.00021224,3.092e-05,0.0,0 STARLINK-3801,1 52356U 22045AB  23279.51181008  .00003092  00000-0  21224-3 0  9999,2 52356  53.2168 212.8702 0001279  83.3720 276.7417 15.08847385 82151,6917.858,95.437,540.608,538.838,0.0
52356.0,STARLINK-3801,PAYLOAD,2023-10-07 01:00:06,15.08833078,0.000135,53.2151,210.4898,84.3078,275.8068,-7.8797e-05,-1.541e-05,0.0,0 STARLINK-3801,1 52356U 22045AB  23280.04173733 -.00001541  00000-0 -78797-4 0  9992,2 52356  53.2151 210.4898 0001350  84.3078 275.8068 15.08833078 82235,6917.902,95.438,540.7,538.833,0.0
52356.0,STARLINK-3801,PAYLOAD,2023-10-07 05:46:15,15.0884253,0.0001283,53.2152,209.5965,93.2344,266.8794,0.0002607,3.864e-05,0.0,0 STARLINK-3801,1 52356U 22045AB  23280.24045258  .00003864  00000-0  26070-3 0  9998,2 52356  53.2152 209.5965 0001283  93.2344 266.8794 15.08842530 82262,6917.873,95.437,540.625,538.85,0.0
52356.0,STARLINK-3801,PAYLOAD,2023-10-08 11:58:34,15.08844356,0.0001395,53.2156,203.9483,83.9472,276.1679,0.00024934,3.683e-05,0.0,0 STARLINK-3801,1 52356U 22045AB  23281.49901484  .00003683  00000-0  24934-3 0  9994,2 52356  53.2156 203.9483 0001395  83.9472 276.1679 15.08844356 82456,6917.867,95.437,540.697,538.767,0.0
52356.0,STARLINK-3801,PAYLOAD,2023-10-08 19:55:30,15.08845441,0.0001592,53.2155,202.4606,81.4717,278.6455,0.00024358,3.591e-05,0.0,0 STARLINK-3801,1 52356U 22045AB  23281.83021518  .00003591  00000-0  24358-3 0  9991,2 52356  53.2155 202.4606 0001592  81.4717 278.6455 15.08845441 82501,6917.864,95.437,540.83,538.627,0.0
52356.0,STARLINK-3801,PAYLOAD,2023-10-09 05:27:48,15.08859355,0.0001367,53.2152,200.6745,93.7394,266.3754,0.00041266,6.289e-05,0.0,0 STARLINK-3801,1 52356U 22045AB  23282.22764643  .00006289  00000-0  41266-3 0  9992,2 52356  53.2152 200.6745 0001367  93.7394 266.3754 15.08859355 82560,6917.821,95.436,540.632,538.741,0.0
52356.0,STARLINK-3801,PAYLOAD,2023-10-09 18:10:54,15.08830461,0.0001753,53.2154,198.2972,89.2543,270.865,-0.00012361,-2.254e-05,0.0,0 STARLINK-3801,1 52356U 22045AB  23282.75758030 -.00002254  00000-0 -12361-3 0  9997,2 52356  53.2154 198.2972 0001753  89.2543 270.8650 15.08830461 82642,6917.91,95.438,540.987,538.562,0.0
52356.0,STARLINK-3801,PAYLOAD,2023-10-10 11:40:09,15.08836328,0.0001453,53.2158,195.0268,87.5576,272.5582,0.0002974,4.448e-05,0.0,0 STARLINK-3801,1 52356U 22045AB  23283.48622240  .00004448  00000-0  29740-3 0  9995,2 52356  53.2158 195.0268 0001453  87.5576 272.5582 15.08836328 82756,6917.892,95.438,540.762,538.751,0.0
52356.0,STARLINK-3801,PAYLOAD,2023-10-10 18:01:42,15.0883481,0.0001715,53.2162,193.8374,85.8458,274.2731,0.00033599,5.063e-05,0.0,0 STARLINK-3801,1 52356U 22045AB  23283.75118590  .00005063  00000-0  33599-3 0  9994,2 52356  53.2162 193.8374 0001715  85.8458 274.2731 15.08834810 82799,6917.896,95.438,540.948,538.575,0.0
52356.0,STARLINK-3801,PAYLOAD,2023-10-10 22:47:51,15.08841502,0.0002091,53.2164,192.9464,81.8056,278.3173,0.00060119,9.293e-05,0.0,0 STARLINK-3801,1 52356U 22045AB  23283.94990634  .00009293  00000-0  60119-3 0  9999,2 52356  53.2164 192.9464 0002091  81.8056 278.3173 15.08841502 82824,6917.876,95.437,541.187,538.294,0.0
52356.0,STARLINK-3801,PAYLOAD,2023-10-11 03:34:01,15.08849648,0.0001863,53.2141,192.0524,86.3134,273.8071,0.00087711,0.00013702,0.0,0 STARLINK-3801,1 52356U 22045AB  23284.14862440  .00013702  00000-0  87711-3 0  9992,2 52356  53.2141 192.0524 0001863  86.3134 273.8071 15.08849648 82859,6917.851,95.437,541.005,538.427,0.0
52356.0,STARLINK-3801,PAYLOAD,2023-10-11 21:03:15,15.08847882,0.0001263,53.2166,188.781,105.5379,254.5753,0.00050047,7.688e-05,0.0,0 STARLINK-3801,1 52356U 22045AB  23284.87726278  .00007688  00000-0  50047-3 0  9998,2 52356  53.2166 188.7810 0001263 105.5379 254.5753 15.08847882 82968,6917.856,95.437,540.595,538.848,0.0
52356.0,STARLINK-3801,PAYLOAD,2023-10-12 03:24:47,15.08860217,0.0001419,53.2162,187.5913,110.5637,249.5508,0.0010205,0.00016,0.0,0 STARLINK-3801,1 52356U 22045AB  23285.14221994  .00016000  00000-0  10205-2 0  9993,2 52356  53.2162 187.5913 0001419 110.5637 249.5508 15.08860217 83006,6917.819,95.436,540.665,538.702,0.0
52356.0,STARLINK-3801,PAYLOAD,2023-10-12 17:43:16,15.08848879,0.0001755,53.2155,184.916,95.1091,265.0101,0.00089428,0.00013977,0.0,0 STARLINK-3801,1 52356U 22045AB  23285.73838342  .00013977  00000-0  89428-3 0  9993,2 52356  53.2155 184.9160 0001755  95.1091 265.0101 15.08848879 83099,6917.853,95.437,540.932,538.504,0.0
52356.0,STARLINK-3801,PAYLOAD,2023-10-12 20:54:02,15.08846932,0.0001337,53.2157,184.3213,108.9006,251.2131,0.00086617,0.00013527,0.0,0 STARLINK-3801,1 52356U 22045AB  23285.87086300  .00013527  00000-0  86617-3 0  9995,2 52356  53.2157 184.3213 0001337 108.9006 251.2131 15.08846932 83110,6917.859,95.437,540.649,538.799,0.0
52356.0,STARLINK-3801,PAYLOAD,2023-10-13 00:04:48,15.08851686,0.0001331,53.2162,183.7276,89.4255,270.689,0.00099629,0.00015609,0.0,0 STARLINK-3801,1 52356U 22045AB  23286.00334308  .00015609  00000-0  99629-3 0  9995,2 52356  53.2162 183.7276 0001331  89.4255 270.6890 15.08851686 83132,6917.845,95.437,540.63,538.789,0.0
52356.0,STARLINK-3801,PAYLOAD,2023-10-13 20:44:49,15.088532,0.0001188,53.216,179.8605,84.4553,275.6574,0.0011805,0.00018556,0.0,0 STARLINK-3801,1 52356U 22045AB  23286.86446373  .00018556  00000-0  11805-2 0  9998,2 52356  53.2160 179.8605 0001188  84.4553 275.6574 15.08853200 83260,6917.84,95.437,540.527,538.883,0.0
52356.0,STARLINK-3801,PAYLOAD,2023-10-14 09:27:54,15.08861126,0.0001165,53.2161,177.4829,104.4269,255.6852,0.00090975,0.00014229,0.0,0 STARLINK-3801,1 52356U 22045AB  23287.39437691  .00014229  00000-0  90975-3 0  9999,2 52356  53.2161 177.4829 0001165 104.4269 255.6852 15.08861126 83347,6917.816,95.436,540.487,538.875,0.0
52356.0,STARLINK-3801,PAYLOAD,2023-10-14 20:35:36,15.08821999,0.0001308,53.2163,175.4011,85.2387,274.8754,-0.00014963,-2.667e-05,0.0,0 STARLINK-3801,1 52356U 22045AB  23287.85806623 -.00002667  00000-0 -14963-3 0  9993,2 52356  53.2163 175.4011 0001308  85.2387 274.8754 15.08821999 83412,6917.935,95.439,540.705,538.896,0.0
52356.0,STARLINK-3801,PAYLOAD,2023-10-14 22:11:00,15.08826116,0.0001298,53.2157,175.1042,88.608,271.506,0.00012429,1.69e-05,0.0,0 STARLINK-3801,1 52356U 22045AB  23287.92430645  .00001690  00000-0  12429-3 0  9996,2 52356  53.2157 175.1042 0001298  88.6080 271.5060 15.08826116 83422,6917.923,95.438,540.686,538.89,0.0
52356.0,STARLINK-3801,PAYLOAD,2023-10-15 02:57:09,15.08836584,0.0001326,53.2152,174.2117,99.4071,260.7071,0.00043295,6.609e-05,0.0,0 STARLINK-3801,1 52356U 22045AB  23288.12302617  .00006609  00000-0  43295-3 0  9996,2 52356  53.2152 174.2117 0001326  99.4071 260.7071 15.08836584 83457,6917.891,95.438,540.673,538.839,0.0
